{
  "type": "FeatureCollection",
  "features": [
    {
      "type": "Feature",
      "properties": {
        "norad_id": 66829,
        "name": "STARLINK-36084",
        "group": "last-30-days",
        "lat": -48.98518663445178,
        "lon": 2.110634118724655,
        "alt_km": 413.71782896230525,
        "timestamp": "2025-12-27T17:24:56.106279+00:00",
        "meta_object_name": "STARLINK-36084",
        "meta_object_id": "2025-280J",
        "meta_epoch": "2025-12-26T21:51:29.345184",
        "meta_mean_motion": 15.52482745,
        "meta_eccentricity": 0.0002994,
        "meta_inclination": 70.0004,
        "meta_ra_of_asc_node": 159.5847,
        "meta_arg_of_pericenter": 276.2035,
        "meta_mean_anomaly": 83.881,
        "meta_ephemeris_type": 0,
        "meta_classification_type": "U",
        "meta_norad_cat_id": 66829,
        "meta_element_set_no": 999,
        "meta_rev_at_epoch": 513,
        "meta_bstar": 0.0017316,
        "meta_mean_motion_dot": 0.00107671,
        "meta_mean_motion_ddot": 0,
        "tle_line1": "1 66829U 25280J   25360.91075631  .00107671  00000+0  17316-2 0  9997",
        "tle_line2": "2 66829  70.0004 159.5847 0002994 276.2035  83.8810 15.52482745  5132"
      },
      "geometry": {
        "type": "Point",
        "coordinates": [
          2.110634118724655,
          -48.98518663445178
        ]
      }
    },
    {
      "type": "Feature",
      "properties": {
        "norad_id": 66830,
        "name": "STARLINK-35881",
        "group": "last-30-days",
        "lat": -52.34085966227945,
        "lon": 5.508849817980608,
        "alt_km": 413.729840069278,
        "timestamp": "2025-12-27T17:24:56.106291+00:00",
        "meta_object_name": "STARLINK-35881",
        "meta_object_id": "2025-280K",
        "meta_epoch": "2025-12-27T04:01:35.480064",
        "meta_mean_motion": 15.52548077,
        "meta_eccentricity": 0.00031547,
        "meta_inclination": 70.0006,
        "meta_ra_of_asc_node": 158.8761,
        "meta_arg_of_pericenter": 283.0642,
        "meta_mean_anomaly": 77.0192,
        "meta_ephemeris_type": 0,
        "meta_classification_type": "U",
        "meta_norad_cat_id": 66830,
        "meta_element_set_no": 999,
        "meta_rev_at_epoch": 517,
        "meta_bstar": 0.0019915234,
        "meta_mean_motion_dot": 0.00124416,
        "meta_mean_motion_ddot": 0,
        "tle_line1": "1 66830U 25280K   25361.16777176  .00124416  00000+0  19915-2 0  9993",
        "tle_line2": "2 66830  70.0006 158.8761 0003154 283.0642  77.0192 15.52548077  5175"
      },
      "geometry": {
        "type": "Point",
        "coordinates": [
          5.508849817980608,
          -52.34085966227945
        ]
      }
    },
    {
      "type": "Feature",
      "properties": {
        "norad_id": 66831,
        "name": "STARLINK-35788",
        "group": "last-30-days",
        "lat": -53.97551187118833,
        "lon": 7.404387809561708,
        "alt_km": 413.2319145086349,
        "timestamp": "2025-12-27T17:24:56.106304+00:00",
        "meta_object_name": "STARLINK-35788",
        "meta_object_id": "2025-280L",
        "meta_epoch": "2025-12-27T04:01:05.450880",
        "meta_mean_motion": 15.52566092,
        "meta_eccentricity": 0.00035133,
        "meta_inclination": 70.0002,
        "meta_ra_of_asc_node": 158.8757,
        "meta_arg_of_pericenter": 275.5341,
        "meta_mean_anomaly": 84.5445,
        "meta_ephemeris_type": 0,
        "meta_classification_type": "U",
        "meta_norad_cat_id": 66831,
        "meta_element_set_no": 999,
        "meta_rev_at_epoch": 517,
        "meta_bstar": 0.0022665873,
        "meta_mean_motion_dot": 0.00142037,
        "meta_mean_motion_ddot": 0,
        "tle_line1": "1 66831U 25280L   25361.16742420  .00142037  00000+0  22666-2 0  9994",
        "tle_line2": "2 66831  70.0002 158.8757 0003513 275.5341  84.5445 15.52566092  5179"
      },
      "geometry": {
        "type": "Point",
        "coordinates": [
          7.404387809561708,
          -53.97551187118833
        ]
      }
    },
    {
      "type": "Feature",
      "properties": {
        "norad_id": 66832,
        "name": "STARLINK-35768",
        "group": "last-30-days",
        "lat": -55.5054201484186,
        "lon": 9.352729160532174,
        "alt_km": 413.49026680179213,
        "timestamp": "2025-12-27T17:24:56.106314+00:00",
        "meta_object_name": "STARLINK-35768",
        "meta_object_id": "2025-280M",
        "meta_epoch": "2025-12-27T04:00:35.956512",
        "meta_mean_motion": 15.52564307,
        "meta_eccentricity": 0.00031357,
        "meta_inclination": 70.0005,
        "meta_ra_of_asc_node": 158.8732,
        "meta_arg_of_pericenter": 276.8618,
        "meta_mean_anomaly": 83.2212,
        "meta_ephemeris_type": 0,
        "meta_classification_type": "U",
        "meta_norad_cat_id": 66832,
        "meta_element_set_no": 999,
        "meta_rev_at_epoch": 517,
        "meta_bstar": 0.0021558069,
        "meta_mean_motion_dot": 0.00134951,
        "meta_mean_motion_ddot": 0,
        "tle_line1": "1 66832U 25280M   25361.16708283  .00134951  00000+0  21558-2 0  9999",
        "tle_line2": "2 66832  70.0005 158.8732 0003135 276.8618  83.2212 15.52564307  5172"
      },
      "geometry": {
        "type": "Point",
        "coordinates": [
          9.352729160532174,
          -55.5054201484186
        ]
      }
    },
    {
      "type": "Feature",
      "properties": {
        "norad_id": 66833,
        "name": "STARLINK-35858",
        "group": "last-30-days",
        "lat": -56.94966987702487,
        "lon": 11.381772391102539,
        "alt_km": 413.4370421470876,
        "timestamp": "2025-12-27T17:24:56.106324+00:00",
        "meta_object_name": "STARLINK-35858",
        "meta_object_id": "2025-280N",
        "meta_epoch": "2025-12-27T04:00:06.196896",
        "meta_mean_motion": 15.52549099,
        "meta_eccentricity": 0.00034531,
        "meta_inclination": 70.0005,
        "meta_ra_of_asc_node": 158.8719,
        "meta_arg_of_pericenter": 273.3916,
        "meta_mean_anomaly": 86.6876,
        "meta_ephemeris_type": 0,
        "meta_classification_type": "U",
        "meta_norad_cat_id": 66833,
        "meta_element_set_no": 999,
        "meta_rev_at_epoch": 517,
        "meta_bstar": 0.0013678637,
        "meta_mean_motion_dot": 0.00084983,
        "meta_mean_motion_ddot": 0,
        "tle_line1": "1 66833U 25280N   25361.16673839  .00084983  00000+0  13679-2 0  9992",
        "tle_line2": "2 66833  70.0005 158.8719 0003453 273.3916  86.6876 15.52549099  5178"
      },
      "geometry": {
        "type": "Point",
        "coordinates": [
          11.381772391102539,
          -56.94966987702487
        ]
      }
    },
    {
      "type": "Feature",
      "properties": {
        "norad_id": 66834,
        "name": "STARLINK-35840",
        "group": "last-30-days",
        "lat": -58.47245251888825,
        "lon": 13.76004568617078,
        "alt_km": 413.22885032933937,
        "timestamp": "2025-12-27T17:24:56.106334+00:00",
        "meta_object_name": "STARLINK-35840",
        "meta_object_id": "2025-280P",
        "meta_epoch": "2025-12-27T11:43:29.125056",
        "meta_mean_motion": 15.52643223,
        "meta_eccentricity": 0.0003627,
        "meta_inclination": 70.0004,
        "meta_ra_of_asc_node": 157.9881,
        "meta_arg_of_pericenter": 277.7767,
        "meta_mean_anomaly": 82.3008,
        "meta_ephemeris_type": 0,
        "meta_classification_type": "U",
        "meta_norad_cat_id": 66834,
        "meta_element_set_no": 999,
        "meta_rev_at_epoch": 522,
        "meta_bstar": 0.0023076,
        "meta_mean_motion_dot": 0.00145068,
        "meta_mean_motion_ddot": 0,
        "tle_line1": "1 66834U 25280P   25361.48853154  .00145068  00000+0  23076-2 0  9992",
        "tle_line2": "2 66834  70.0004 157.9881 0003627 277.7767  82.3008 15.52643223  5223"
      },
      "geometry": {
        "type": "Point",
        "coordinates": [
          13.76004568617078,
          -58.47245251888825
        ]
      }
    },
    {
      "type": "Feature",
      "properties": {
        "norad_id": 66835,
        "name": "STARLINK-35890",
        "group": "last-30-days",
        "lat": -61.73094775612211,
        "lon": 19.967065627735305,
        "alt_km": 407.71452152723396,
        "timestamp": "2025-12-27T17:24:56.106344+00:00",
        "meta_object_name": "STARLINK-35890",
        "meta_object_id": "2025-280Q",
        "meta_epoch": "2025-12-27T11:42:31.224960",
        "meta_mean_motion": 15.53572189,
        "meta_eccentricity": 0.0007447,
        "meta_inclination": 70.0005,
        "meta_ra_of_asc_node": 157.9854,
        "meta_arg_of_pericenter": 261.6596,
        "meta_mean_anomaly": 98.3747,
        "meta_ephemeris_type": 0,
        "meta_classification_type": "U",
        "meta_norad_cat_id": 66835,
        "meta_element_set_no": 999,
        "meta_rev_at_epoch": 522,
        "meta_bstar": 0.0021973,
        "meta_mean_motion_dot": 0.00142901,
        "meta_mean_motion_ddot": 0,
        "tle_line1": "1 66835U 25280Q   25361.48786140  .00142901  00000+0  21973-2 0  9990",
        "tle_line2": "2 66835  70.0005 157.9854 0007447 261.6596  98.3747 15.53572189  5221"
      },
      "geometry": {
        "type": "Point",
        "coordinates": [
          19.967065627735305,
          -61.73094775612211
        ]
      }
    }
  ]
}